{
"type": "FeatureCollection",
"name": "points",
"crs": { "type": "name", "properties": { "name": "urn:ogc:def:crs:OGC:1.3:CRS84" } },
"features": [
{ "type": "Feature", "properties": { "state": "Gujarat", "page": 156, "point": 1, "lon": 73.6032, "lat": 21.115 }, "geometry": { "type": "Point", "coordinates": [ 73.6032, 21.115 ] } },
{ "type": "Feature", "properties": { "state": "Gujarat", "page": 156, "point": 32, "lon": 73.8176, "lat": 20.7309 }, "geometry": { "type": "Point", "coordinates": [ 73.8176, 20.7309 ] } },
{ "type": "Feature", "properties": { "state": "Gujarat", "page": 156, "point": 2, "lon": 73.6322, "lat": 21.1018 }, "geometry": { "type": "Point", "coordinates": [ 73.6322, 21.1018 ] } },
{ "type": "Feature", "properties": { "state": "Gujarat", "page": 156, "point": 33, "lon": 73.8638, "lat": 20.7539 }, "geometry": { "type": "Point", "coordinates": [ 73.8638, 20.7539 ] } },
{ "type": "Feature", "properties": { "state": "Gujarat", "page": 156, "point": 3, "lon": 73.6505, "lat": 21.0659 }, "geometry": { "type": "Point", "coordinates": [ 73.6505, 21.0659 ] } },
{ "type": "Feature", "properties": { "state": "Gujarat", "page": 156, "point": 34, "lon": 73.8474, "lat": 20.7254 }, "geometry": { "type": "Point", "coordinates": [ 73.8474, 20.7254 ] } },
{ "type": "Feature", "properties": { "state": "Gujarat", "page": 156, "point": 4, "lon": 73.625, "lat": 21.0793 }, "geometry": { "type": "Point", "coordinates": [ 73.625, 21.0793 ] } },
{ "type": "Feature", "properties": { "state": "Gujarat", "page": 156, "point": 35, "lon": 73.8962, "lat": 20.743 }, "geometry": { "type": "Point", "coordinates": [ 73.8962, 20.743 ] } },
{ "type": "Feature", "properties": { "state": "Gujarat", "page": 156, "point": 5, "lon": 73.6069, "lat": 21.0374 }, "geometry": { "type": "Point", "coordinates": [ 73.6069, 21.0374 ] } },
{ "type": "Feature", "properties": { "state": "Gujarat", "page": 156, "point": 36, "lon": 73.9232, "lat": 20.7463 }, "geometry": { "type": "Point", "coordinates": [ 73.9232, 20.7463 ] } },
{ "type": "Feature", "properties": { "state": "Gujarat", "page": 156, "point": 6, "lon": 73.6553, "lat": 21.0406 }, "geometry": { "type": "Point", "coordinates": [ 73.6553, 21.0406 ] } },
{ "type": "Feature", "properties": { "state": "Gujarat", "page": 156, "point": 37, "lon": 73.9075, "lat": 20.779 }, "geometry": { "type": "Point", "coordinates": [ 73.9075, 20.779 ] } },
{ "type": "Feature", "properties": { "state": "Gujarat", "page": 156, "point": 7, "lon": 73.7128, "lat": 21.0508 }, "geometry": { "type": "Point", "coordinates": [ 73.7128, 21.0508 ] } },
{ "type": "Feature", "properties": { "state": "Gujarat", "page": 156, "point": 38, "lon": 73.9067, "lat": 20.8222 }, "geometry": { "type": "Point", "coordinates": [ 73.9067, 20.8222 ] } },
{ "type": "Feature", "properties": { "state": "Gujarat", "page": 156, "point": 8, "lon": 73.6303, "lat": 21.0184 }, "geometry": { "type": "Point", "coordinates": [ 73.6303, 21.0184 ] } },
{ "type": "Feature", "properties": { "state": "Gujarat", "page": 156, "point": 39, "lon": 73.6185, "lat": 21.1326 }, "geometry": { "type": "Point", "coordinates": [ 73.6185, 21.1326 ] } },
{ "type": "Feature", "properties": { "state": "Gujarat", "page": 156, "point": 9, "lon": 73.6174, "lat": 20.9179 }, "geometry": { "type": "Point", "coordinates": [ 73.6174, 20.9179 ] } },
{ "type": "Feature", "properties": { "state": "Gujarat", "page": 156, "point": 40, "lon": 73.7369, "lat": 21.0523 }, "geometry": { "type": "Point", "coordinates": [ 73.7369, 21.0523 ] } },
{ "type": "Feature", "properties": { "state": "Gujarat", "page": 156, "point": 10, "lon": 73.6545, "lat": 20.9095 }, "geometry": { "type": "Point", "coordinates": [ 73.6545, 20.9095 ] } },
{ "type": "Feature", "properties": { "state": "Gujarat", "page": 156, "point": 41, "lon": 73.6563, "lat": 21.0015 }, "geometry": { "type": "Point", "coordinates": [ 73.6563, 21.0015 ] } },
{ "type": "Feature", "properties": { "state": "Gujarat", "page": 156, "point": 11, "lon": 73.6924, "lat": 20.8578 }, "geometry": { "type": "Point", "coordinates": [ 73.6924, 20.8578 ] } },
{ "type": "Feature", "properties": { "state": "Gujarat", "page": 156, "point": 42, "lon": 73.6173, "lat": 20.9957 }, "geometry": { "type": "Point", "coordinates": [ 73.6173, 20.9957 ] } },
{ "type": "Feature", "properties": { "state": "Gujarat", "page": 156, "point": 12, "lon": 73.7185, "lat": 20.9055 }, "geometry": { "type": "Point", "coordinates": [ 73.7185, 20.9055 ] } },
{ "type": "Feature", "properties": { "state": "Gujarat", "page": 156, "point": 43, "lon": 73.5705, "lat": 21.0126 }, "geometry": { "type": "Point", "coordinates": [ 73.5705, 21.0126 ] } },
{ "type": "Feature", "properties": { "state": "Gujarat", "page": 156, "point": 13, "lon": 73.725, "lat": 20.968 }, "geometry": { "type": "Point", "coordinates": [ 73.725, 20.968 ] } },
{ "type": "Feature", "properties": { "state": "Gujarat", "page": 156, "point": 44, "lon": 73.5484, "lat": 21.0285 }, "geometry": { "type": "Point", "coordinates": [ 73.5484, 21.0285 ] } },
{ "type": "Feature", "properties": { "state": "Gujarat", "page": 156, "point": 14, "lon": 73.5147, "lat": 21.0124 }, "geometry": { "type": "Point", "coordinates": [ 73.5147, 21.0124 ] } },
{ "type": "Feature", "properties": { "state": "Gujarat", "page": 156, "point": 45, "lon": 73.5327, "lat": 20.9373 }, "geometry": { "type": "Point", "coordinates": [ 73.5327, 20.9373 ] } },
{ "type": "Feature", "properties": { "state": "Gujarat", "page": 156, "point": 15, "lon": 73.5154, "lat": 20.9491 }, "geometry": { "type": "Point", "coordinates": [ 73.5154, 20.9491 ] } },
{ "type": "Feature", "properties": { "state": "Gujarat", "page": 156, "point": 46, "lon": 73.5063, "lat": 20.9267 }, "geometry": { "type": "Point", "coordinates": [ 73.5063, 20.9267 ] } },
{ "type": "Feature", "properties": { "state": "Gujarat", "page": 156, "point": 16, "lon": 73.4792, "lat": 20.9875 }, "geometry": { "type": "Point", "coordinates": [ 73.4792, 20.9875 ] } },
{ "type": "Feature", "properties": { "state": "Gujarat", "page": 156, "point": 47, "lon": 73.5014, "lat": 20.8211 }, "geometry": { "type": "Point", "coordinates": [ 73.5014, 20.8211 ] } },
{ "type": "Feature", "properties": { "state": "Gujarat", "page": 156, "point": 17, "lon": 73.4447, "lat": 20.9682 }, "geometry": { "type": "Point", "coordinates": [ 73.4447, 20.9682 ] } },
{ "type": "Feature", "properties": { "state": "Gujarat", "page": 156, "point": 48, "lon": 73.5042, "lat": 20.856 }, "geometry": { "type": "Point", "coordinates": [ 73.5042, 20.856 ] } },
{ "type": "Feature", "properties": { "state": "Gujarat", "page": 156, "point": 18, "lon": 73.4826, "lat": 20.9432 }, "geometry": { "type": "Point", "coordinates": [ 73.4826, 20.9432 ] } },
{ "type": "Feature", "properties": { "state": "Gujarat", "page": 156, "point": 49, "lon": 73.4502, "lat": 20.8136 }, "geometry": { "type": "Point", "coordinates": [ 73.4502, 20.8136 ] } },
{ "type": "Feature", "properties": { "state": "Gujarat", "page": 156, "point": 19, "lon": 73.5138, "lat": 20.9101 }, "geometry": { "type": "Point", "coordinates": [ 73.5138, 20.9101 ] } },
{ "type": "Feature", "properties": { "state": "Gujarat", "page": 156, "point": 50, "lon": 73.4769, "lat": 20.7495 }, "geometry": { "type": "Point", "coordinates": [ 73.4769, 20.7495 ] } },
{ "type": "Feature", "properties": { "state": "Gujarat", "page": 156, "point": 20, "lon": 73.5482, "lat": 20.9305 }, "geometry": { "type": "Point", "coordinates": [ 73.5482, 20.9305 ] } },
{ "type": "Feature", "properties": { "state": "Gujarat", "page": 156, "point": 51, "lon": 73.4884, "lat": 20.79 }, "geometry": { "type": "Point", "coordinates": [ 73.4884, 20.79 ] } },
{ "type": "Feature", "properties": { "state": "Gujarat", "page": 156, "point": 21, "lon": 73.5136, "lat": 20.8413 }, "geometry": { "type": "Point", "coordinates": [ 73.5136, 20.8413 ] } },
{ "type": "Feature", "properties": { "state": "Gujarat", "page": 156, "point": 52, "lon": 73.7381, "lat": 21.0018 }, "geometry": { "type": "Point", "coordinates": [ 73.7381, 21.0018 ] } },
{ "type": "Feature", "properties": { "state": "Gujarat", "page": 156, "point": 22, "lon": 73.4317, "lat": 20.7544 }, "geometry": { "type": "Point", "coordinates": [ 73.4317, 20.7544 ] } },
{ "type": "Feature", "properties": { "state": "Gujarat", "page": 156, "point": 53, "lon": 73.6472, "lat": 20.9811 }, "geometry": { "type": "Point", "coordinates": [ 73.6472, 20.9811 ] } },
{ "type": "Feature", "properties": { "state": "Gujarat", "page": 156, "point": 23, "lon": 73.4227, "lat": 20.7929 }, "geometry": { "type": "Point", "coordinates": [ 73.4227, 20.7929 ] } },
{ "type": "Feature", "properties": { "state": "Gujarat", "page": 156, "point": 54, "lon": 73.9282, "lat": 20.8433 }, "geometry": { "type": "Point", "coordinates": [ 73.9282, 20.8433 ] } },
{ "type": "Feature", "properties": { "state": "Gujarat", "page": 156, "point": 24, "lon": 73.6622, "lat": 20.6 }, "geometry": { "type": "Point", "coordinates": [ 73.6622, 20.6 ] } },
{ "type": "Feature", "properties": { "state": "Gujarat", "page": 156, "point": 55, "lon": 73.9318, "lat": 20.7644 }, "geometry": { "type": "Point", "coordinates": [ 73.9318, 20.7644 ] } },
{ "type": "Feature", "properties": { "state": "Gujarat", "page": 156, "point": 25, "lon": 73.6784, "lat": 20.6307 }, "geometry": { "type": "Point", "coordinates": [ 73.6784, 20.6307 ] } },
{ "type": "Feature", "properties": { "state": "Gujarat", "page": 156, "point": 56, "lon": 73.94, "lat": 20.7574 }, "geometry": { "type": "Point", "coordinates": [ 73.94, 20.7574 ] } },
{ "type": "Feature", "properties": { "state": "Gujarat", "page": 156, "point": 26, "lon": 73.718, "lat": 20.6179 }, "geometry": { "type": "Point", "coordinates": [ 73.718, 20.6179 ] } },
{ "type": "Feature", "properties": { "state": "Gujarat", "page": 156, "point": 57, "lon": 73.8786, "lat": 20.7286 }, "geometry": { "type": "Point", "coordinates": [ 73.8786, 20.7286 ] } },
{ "type": "Feature", "properties": { "state": "Gujarat", "page": 156, "point": 27, "lon": 73.7638, "lat": 20.6209 }, "geometry": { "type": "Point", "coordinates": [ 73.7638, 20.6209 ] } },
{ "type": "Feature", "properties": { "state": "Gujarat", "page": 156, "point": 58, "lon": 73.8306, "lat": 20.7035 }, "geometry": { "type": "Point", "coordinates": [ 73.8306, 20.7035 ] } },
{ "type": "Feature", "properties": { "state": "Gujarat", "page": 156, "point": 28, "lon": 73.8108, "lat": 20.6506 }, "geometry": { "type": "Point", "coordinates": [ 73.8108, 20.6506 ] } },
{ "type": "Feature", "properties": { "state": "Gujarat", "page": 156, "point": 59, "lon": 73.6328, "lat": 21.1482 }, "geometry": { "type": "Point", "coordinates": [ 73.6328, 21.1482 ] } },
{ "type": "Feature", "properties": { "state": "Gujarat", "page": 156, "point": 29, "lon": 73.7521, "lat": 20.6693 }, "geometry": { "type": "Point", "coordinates": [ 73.7521, 20.6693 ] } },
{ "type": "Feature", "properties": { "state": "Gujarat", "page": 156, "point": 60, "lon": 73.6676, "lat": 21.1525 }, "geometry": { "type": "Point", "coordinates": [ 73.6676, 21.1525 ] } },
{ "type": "Feature", "properties": { "state": "Gujarat", "page": 156, "point": 30, "lon": 73.7374, "lat": 20.7053 }, "geometry": { "type": "Point", "coordinates": [ 73.7374, 20.7053 ] } },
{ "type": "Feature", "properties": { "state": "Gujarat", "page": 156, "point": 61, "lon": 73.7273, "lat": 20.5759 }, "geometry": { "type": "Point", "coordinates": [ 73.7273, 20.5759 ] } },
{ "type": "Feature", "properties": { "state": "Gujarat", "page": 156, "point": 31, "lon": 73.7607, "lat": 20.7363 }, "geometry": { "type": "Point", "coordinates": [ 73.7607, 20.7363 ] } },
{ "type": "Feature", "properties": { "state": "Maharashtra", "page": 158, "point": 1, "lon": 74.0058, "lat": 20.8256 }, "geometry": { "type": "Point", "coordinates": [ 74.0058, 20.8256 ] } },
{ "type": "Feature", "properties": { "state": "Maharashtra", "page": 158, "point": 37, "lon": 73.1944, "lat": 19.4682 }, "geometry": { "type": "Point", "coordinates": [ 73.1944, 19.4682 ] } },
{ "type": "Feature", "properties": { "state": "Maharashtra", "page": 158, "point": 2, "lon": 74.1064, "lat": 20.7453 }, "geometry": { "type": "Point", "coordinates": [ 74.1064, 20.7453 ] } },
{ "type": "Feature", "properties": { "state": "Maharashtra", "page": 158, "point": 40, "lon": 73.3863, "lat": 19.6241 }, "geometry": { "type": "Point", "coordinates": [ 73.3863, 19.6241 ] } },
{ "type": "Feature", "properties": { "state": "Maharashtra", "page": 158, "point": 3, "lon": 74.0194, "lat": 20.6892 }, "geometry": { "type": "Point", "coordinates": [ 74.0194, 20.6892 ] } },
{ "type": "Feature", "properties": { "state": "Maharashtra", "page": 158, "point": 41, "lon": 73.4258, "lat": 19.4225 }, "geometry": { "type": "Point", "coordinates": [ 73.4258, 19.4225 ] } },
{ "type": "Feature", "properties": { "state": "Maharashtra", "page": 158, "point": 4, "lon": 74.0191, "lat": 20.612 }, "geometry": { "type": "Point", "coordinates": [ 74.0191, 20.612 ] } },
{ "type": "Feature", "properties": { "state": "Maharashtra", "page": 158, "point": 42, "lon": 73.5894, "lat": 19.4016 }, "geometry": { "type": "Point", "coordinates": [ 73.5894, 19.4016 ] } },
{ "type": "Feature", "properties": { "state": "Maharashtra", "page": 158, "point": 5, "lon": 73.9412, "lat": 20.6054 }, "geometry": { "type": "Point", "coordinates": [ 73.9412, 20.6054 ] } },
{ "type": "Feature", "properties": { "state": "Maharashtra", "page": 158, "point": 43, "lon": 73.5123, "lat": 19.2406 }, "geometry": { "type": "Point", "coordinates": [ 73.5123, 19.2406 ] } },
{ "type": "Feature", "properties": { "state": "Maharashtra", "page": 158, "point": 6, "lon": 73.8781, "lat": 20.5993 }, "geometry": { "type": "Point", "coordinates": [ 73.8781, 20.5993 ] } },
{ "type": "Feature", "properties": { "state": "Maharashtra", "page": 158, "point": 44, "lon": 73.4137, "lat": 19.068 }, "geometry": { "type": "Point", "coordinates": [ 73.4137, 19.068 ] } },
{ "type": "Feature", "properties": { "state": "Maharashtra", "page": 158, "point": 7, "lon": 73.8235, "lat": 20.4918 }, "geometry": { "type": "Point", "coordinates": [ 73.8235, 20.4918 ] } },
{ "type": "Feature", "properties": { "state": "Maharashtra", "page": 158, "point": 45, "lon": 73.3746, "lat": 18.8911 }, "geometry": { "type": "Point", "coordinates": [ 73.3746, 18.8911 ] } },
{ "type": "Feature", "properties": { "state": "Maharashtra", "page": 158, "point": 8, "lon": 73.9932, "lat": 20.5268 }, "geometry": { "type": "Point", "coordinates": [ 73.9932, 20.5268 ] } },
{ "type": "Feature", "properties": { "state": "Maharashtra", "page": 158, "point": 46, "lon": 73.3242, "lat": 18.7207 }, "geometry": { "type": "Point", "coordinates": [ 73.3242, 18.7207 ] } },
{ "type": "Feature", "properties": { "state": "Maharashtra", "page": 158, "point": 9, "lon": 74.0579, "lat": 20.5785 }, "geometry": { "type": "Point", "coordinates": [ 74.0579, 20.5785 ] } },
{ "type": "Feature", "properties": { "state": "Maharashtra", "page": 158, "point": 47, "lon": 73.2432, "lat": 18.6505 }, "geometry": { "type": "Point", "coordinates": [ 73.2432, 18.6505 ] } },
{ "type": "Feature", "properties": { "state": "Maharashtra", "page": 158, "point": 10, "lon": 74.053, "lat": 20.4379 }, "geometry": { "type": "Point", "coordinates": [ 74.053, 20.4379 ] } },
{ "type": "Feature", "properties": { "state": "Maharashtra", "page": 158, "point": 48, "lon": 73.0729, "lat": 18.534 }, "geometry": { "type": "Point", "coordinates": [ 73.0729, 18.534 ] } },
{ "type": "Feature", "properties": { "state": "Maharashtra", "page": 158, "point": 11, "lon": 74.019, "lat": 20.3664 }, "geometry": { "type": "Point", "coordinates": [ 74.019, 20.3664 ] } },
{ "type": "Feature", "properties": { "state": "Maharashtra", "page": 158, "point": 49, "lon": 72.987, "lat": 18.4214 }, "geometry": { "type": "Point", "coordinates": [ 72.987, 18.4214 ] } },
{ "type": "Feature", "properties": { "state": "Maharashtra", "page": 158, "point": 12, "lon": 73.8978, "lat": 20.4141 }, "geometry": { "type": "Point", "coordinates": [ 73.8978, 20.4141 ] } },
{ "type": "Feature", "properties": { "state": "Maharashtra", "page": 158, "point": 51, "lon": 73.253, "lat": 18.4548 }, "geometry": { "type": "Point", "coordinates": [ 73.253, 18.4548 ] } },
{ "type": "Feature", "properties": { "state": "Maharashtra", "page": 158, "point": 13, "lon": 73.6994, "lat": 20.4375 }, "geometry": { "type": "Point", "coordinates": [ 73.6994, 20.4375 ] } },
{ "type": "Feature", "properties": { "state": "Maharashtra", "page": 158, "point": 52, "lon": 73.3929, "lat": 18.3701 }, "geometry": { "type": "Point", "coordinates": [ 73.3929, 18.3701 ] } },
{ "type": "Feature", "properties": { "state": "Maharashtra", "page": 158, "point": 14, "lon": 73.72, "lat": 20.5541 }, "geometry": { "type": "Point", "coordinates": [ 73.72, 20.5541 ] } },
{ "type": "Feature", "properties": { "state": "Maharashtra", "page": 158, "point": 53, "lon": 73.3688, "lat": 18.2641 }, "geometry": { "type": "Point", "coordinates": [ 73.3688, 18.2641 ] } },
{ "type": "Feature", "properties": { "state": "Maharashtra", "page": 158, "point": 15, "lon": 73.6027, "lat": 20.5913 }, "geometry": { "type": "Point", "coordinates": [ 73.6027, 20.5913 ] } },
{ "type": "Feature", "properties": { "state": "Maharashtra", "page": 158, "point": 54, "lon": 73.4378, "lat": 18.1272 }, "geometry": { "type": "Point", "coordinates": [ 73.4378, 18.1272 ] } },
{ "type": "Feature", "properties": { "state": "Maharashtra", "page": 158, "point": 16, "lon": 73.5408, "lat": 20.5605 }, "geometry": { "type": "Point", "coordinates": [ 73.5408, 20.5605 ] } },
{ "type": "Feature", "properties": { "state": "Maharashtra", "page": 158, "point": 55, "lon": 73.5931, "lat": 18.092 }, "geometry": { "type": "Point", "coordinates": [ 73.5931, 18.092 ] } },
{ "type": "Feature", "properties": { "state": "Maharashtra", "page": 158, "point": 17, "lon": 73.5606, "lat": 20.4596 }, "geometry": { "type": "Point", "coordinates": [ 73.5606, 20.4596 ] } },
{ "type": "Feature", "properties": { "state": "Maharashtra", "page": 158, "point": 56, "lon": 73.5066, "lat": 17.9903 }, "geometry": { "type": "Point", "coordinates": [ 73.5066, 17.9903 ] } },
{ "type": "Feature", "properties": { "state": "Maharashtra", "page": 158, "point": 18, "lon": 73.5139, "lat": 20.3488 }, "geometry": { "type": "Point", "coordinates": [ 73.5139, 20.3488 ] } },
{ "type": "Feature", "properties": { "state": "Maharashtra", "page": 158, "point": 57, "lon": 73.3683, "lat": 17.8302 }, "geometry": { "type": "Point", "coordinates": [ 73.3683, 17.8302 ] } },
{ "type": "Feature", "properties": { "state": "Maharashtra", "page": 158, "point": 19, "lon": 73.4652, "lat": 20.28 }, "geometry": { "type": "Point", "coordinates": [ 73.4652, 20.28 ] } },
{ "type": "Feature", "properties": { "state": "Maharashtra", "page": 158, "point": 58, "lon": 73.4914, "lat": 17.6993 }, "geometry": { "type": "Point", "coordinates": [ 73.4914, 17.6993 ] } },
{ "type": "Feature", "properties": { "state": "Maharashtra", "page": 158, "point": 20, "lon": 73.5387, "lat": 20.2201 }, "geometry": { "type": "Point", "coordinates": [ 73.5387, 20.2201 ] } },
{ "type": "Feature", "properties": { "state": "Maharashtra", "page": 158, "point": 59, "lon": 73.5768, "lat": 17.5912 }, "geometry": { "type": "Point", "coordinates": [ 73.5768, 17.5912 ] } },
{ "type": "Feature", "properties": { "state": "Maharashtra", "page": 158, "point": 21, "lon": 73.486, "lat": 20.1581 }, "geometry": { "type": "Point", "coordinates": [ 73.486, 20.1581 ] } },
{ "type": "Feature", "properties": { "state": "Maharashtra", "page": 158, "point": 60, "lon": 73.5668, "lat": 17.4195 }, "geometry": { "type": "Point", "coordinates": [ 73.5668, 17.4195 ] } },
{ "type": "Feature", "properties": { "state": "Maharashtra", "page": 158, "point": 22, "lon": 73.3898, "lat": 20.1504 }, "geometry": { "type": "Point", "coordinates": [ 73.3898, 20.1504 ] } },
{ "type": "Feature", "properties": { "state": "Maharashtra", "page": 158, "point": 61, "lon": 73.5612, "lat": 17.3075 }, "geometry": { "type": "Point", "coordinates": [ 73.5612, 17.3075 ] } },
{ "type": "Feature", "properties": { "state": "Maharashtra", "page": 158, "point": 24, "lon": 73.3232, "lat": 19.9966 }, "geometry": { "type": "Point", "coordinates": [ 73.3232, 19.9966 ] } },
{ "type": "Feature", "properties": { "state": "Maharashtra", "page": 158, "point": 62, "lon": 73.6318, "lat": 17.1219 }, "geometry": { "type": "Point", "coordinates": [ 73.6318, 17.1219 ] } },
{ "type": "Feature", "properties": { "state": "Maharashtra", "page": 158, "point": 25, "lon": 73.2398, "lat": 20.0314 }, "geometry": { "type": "Point", "coordinates": [ 73.2398, 20.0314 ] } },
{ "type": "Feature", "properties": { "state": "Maharashtra", "page": 158, "point": 63, "lon": 73.6692, "lat": 16.942 }, "geometry": { "type": "Point", "coordinates": [ 73.6692, 16.942 ] } },
{ "type": "Feature", "properties": { "state": "Maharashtra", "page": 158, "point": 26, "lon": 73.4839, "lat": 20.0493 }, "geometry": { "type": "Point", "coordinates": [ 73.4839, 20.0493 ] } },
{ "type": "Feature", "properties": { "state": "Maharashtra", "page": 158, "point": 64, "lon": 73.5789, "lat": 16.781 }, "geometry": { "type": "Point", "coordinates": [ 73.5789, 16.781 ] } },
{ "type": "Feature", "properties": { "state": "Maharashtra", "page": 158, "point": 27, "lon": 73.4799, "lat": 19.9053 }, "geometry": { "type": "Point", "coordinates": [ 73.4799, 19.9053 ] } },
{ "type": "Feature", "properties": { "state": "Maharashtra", "page": 158, "point": 65, "lon": 73.6967, "lat": 16.664 }, "geometry": { "type": "Point", "coordinates": [ 73.6967, 16.664 ] } },
{ "type": "Feature", "properties": { "state": "Maharashtra", "page": 158, "point": 28, "lon": 73.5366, "lat": 19.8061 }, "geometry": { "type": "Point", "coordinates": [ 73.5366, 19.8061 ] } },
{ "type": "Feature", "properties": { "state": "Maharashtra", "page": 158, "point": 66, "lon": 73.6991, "lat": 16.4548 }, "geometry": { "type": "Point", "coordinates": [ 73.6991, 16.4548 ] } },
{ "type": "Feature", "properties": { "state": "Maharashtra", "page": 158, "point": 29, "lon": 73.5707, "lat": 19.7128 }, "geometry": { "type": "Point", "coordinates": [ 73.5707, 19.7128 ] } },
{ "type": "Feature", "properties": { "state": "Maharashtra", "page": 158, "point": 67, "lon": 73.7466, "lat": 16.3661 }, "geometry": { "type": "Point", "coordinates": [ 73.7466, 16.3661 ] } },
{ "type": "Feature", "properties": { "state": "Maharashtra", "page": 158, "point": 30, "lon": 73.1098, "lat": 20.0325 }, "geometry": { "type": "Point", "coordinates": [ 73.1098, 20.0325 ] } },
{ "type": "Feature", "properties": { "state": "Maharashtra", "page": 158, "point": 68, "lon": 73.6751, "lat": 16.1957 }, "geometry": { "type": "Point", "coordinates": [ 73.6751, 16.1957 ] } },
{ "type": "Feature", "properties": { "state": "Maharashtra", "page": 158, "point": 31, "lon": 73.043, "lat": 19.9627 }, "geometry": { "type": "Point", "coordinates": [ 73.043, 19.9627 ] } },
{ "type": "Feature", "properties": { "state": "Maharashtra", "page": 158, "point": 69, "lon": 73.7503, "lat": 16.0491 }, "geometry": { "type": "Point", "coordinates": [ 73.7503, 16.0491 ] } },
{ "type": "Feature", "properties": { "state": "Maharashtra", "page": 158, "point": 32, "lon": 73.1282, "lat": 19.893 }, "geometry": { "type": "Point", "coordinates": [ 73.1282, 19.893 ] } },
{ "type": "Feature", "properties": { "state": "Maharashtra", "page": 158, "point": 70, "lon": 73.8298, "lat": 15.8853 }, "geometry": { "type": "Point", "coordinates": [ 73.8298, 15.8853 ] } },
{ "type": "Feature", "properties": { "state": "Maharashtra", "page": 158, "point": 33, "lon": 73.1898, "lat": 19.7765 }, "geometry": { "type": "Point", "coordinates": [ 73.1898, 19.7765 ] } },
{ "type": "Feature", "properties": { "state": "Maharashtra", "page": 158, "point": 71, "lon": 73.7949, "lat": 15.7828 }, "geometry": { "type": "Point", "coordinates": [ 73.7949, 15.7828 ] } },
{ "type": "Feature", "properties": { "state": "Maharashtra", "page": 158, "point": 34, "lon": 73.1248, "lat": 19.6719 }, "geometry": { "type": "Point", "coordinates": [ 73.1248, 19.6719 ] } },
{ "type": "Feature", "properties": { "state": "Maharashtra", "page": 158, "point": 72, "lon": 73.6179, "lat": 15.9528 }, "geometry": { "type": "Point", "coordinates": [ 73.6179, 15.9528 ] } },
{ "type": "Feature", "properties": { "state": "Maharashtra", "page": 158, "point": 35, "lon": 73.1853, "lat": 19.6466 }, "geometry": { "type": "Point", "coordinates": [ 73.1853, 19.6466 ] } },
{ "type": "Feature", "properties": { "state": "Maharashtra", "page": 158, "point": 73, "lon": 73.4909, "lat": 16.2748 }, "geometry": { "type": "Point", "coordinates": [ 73.4909, 16.2748 ] } },
{ "type": "Feature", "properties": { "state": "Maharashtra", "page": 158, "point": 36, "lon": 73.1206, "lat": 19.5384 }, "geometry": { "type": "Point", "coordinates": [ 73.1206, 19.5384 ] } },
{ "type": "Feature", "properties": { "state": "Maharashtra", "page": 158, "point": 74, "lon": 73.507, "lat": 16.3905 }, "geometry": { "type": "Point", "coordinates": [ 73.507, 16.3905 ] } },
{ "type": "Feature", "properties": { "state": "Maharashtra", "page": 159, "point": 75, "lon": 73.6341, "lat": 16.4554 }, "geometry": { "type": "Point", "coordinates": [ 73.6341, 16.4554 ] } },
{ "type": "Feature", "properties": { "state": "Maharashtra", "page": 159, "point": 109, "lon": 73.768, "lat": 18.187 }, "geometry": { "type": "Point", "coordinates": [ 73.768, 18.187 ] } },
{ "type": "Feature", "properties": { "state": "Maharashtra", "page": 159, "point": 76, "lon": 73.6904, "lat": 16.3323 }, "geometry": { "type": "Point", "coordinates": [ 73.6904, 16.3323 ] } },
{ "type": "Feature", "properties": { "state": "Maharashtra", "page": 159, "point": 110, "lon": 73.634, "lat": 18.3107 }, "geometry": { "type": "Point", "coordinates": [ 73.634, 18.3107 ] } },
{ "type": "Feature", "properties": { "state": "Maharashtra", "page": 159, "point": 77, "lon": 73.6095, "lat": 16.287 }, "geometry": { "type": "Point", "coordinates": [ 73.6095, 16.287 ] } },
{ "type": "Feature", "properties": { "state": "Maharashtra", "page": 159, "point": 111, "lon": 73.5707, "lat": 18.4865 }, "geometry": { "type": "Point", "coordinates": [ 73.5707, 18.4865 ] } },
{ "type": "Feature", "properties": { "state": "Maharashtra", "page": 159, "point": 78, "lon": 73.5076, "lat": 16.6068 }, "geometry": { "type": "Point", "coordinates": [ 73.5076, 16.6068 ] } },
{ "type": "Feature", "properties": { "state": "Maharashtra", "page": 159, "point": 112, "lon": 73.6273, "lat": 18.608 }, "geometry": { "type": "Point", "coordinates": [ 73.6273, 18.608 ] } },
{ "type": "Feature", "properties": { "state": "Maharashtra", "page": 159, "point": 79, "lon": 73.4641, "lat": 16.5316 }, "geometry": { "type": "Point", "coordinates": [ 73.4641, 16.5316 ] } },
{ "type": "Feature", "properties": { "state": "Maharashtra", "page": 159, "point": 113, "lon": 73.5363, "lat": 18.7441 }, "geometry": { "type": "Point", "coordinates": [ 73.5363, 18.7441 ] } },
{ "type": "Feature", "properties": { "state": "Maharashtra", "page": 159, "point": 80, "lon": 73.585, "lat": 16.4986 }, "geometry": { "type": "Point", "coordinates": [ 73.585, 16.4986 ] } },
{ "type": "Feature", "properties": { "state": "Maharashtra", "page": 159, "point": 114, "lon": 73.661, "lat": 18.8266 }, "geometry": { "type": "Point", "coordinates": [ 73.661, 18.8266 ] } },
{ "type": "Feature", "properties": { "state": "Maharashtra", "page": 159, "point": 81, "lon": 73.6308, "lat": 16.6018 }, "geometry": { "type": "Point", "coordinates": [ 73.6308, 16.6018 ] } },
{ "type": "Feature", "properties": { "state": "Maharashtra", "page": 159, "point": 115, "lon": 73.7288, "lat": 19.0291 }, "geometry": { "type": "Point", "coordinates": [ 73.7288, 19.0291 ] } },
{ "type": "Feature", "properties": { "state": "Maharashtra", "page": 159, "point": 82, "lon": 73.5247, "lat": 16.7018 }, "geometry": { "type": "Point", "coordinates": [ 73.5247, 16.7018 ] } },
{ "type": "Feature", "properties": { "state": "Maharashtra", "page": 159, "point": 116, "lon": 73.7184, "lat": 19.1723 }, "geometry": { "type": "Point", "coordinates": [ 73.7184, 19.1723 ] } },
{ "type": "Feature", "properties": { "state": "Maharashtra", "page": 159, "point": 83, "lon": 73.3717, "lat": 16.7962 }, "geometry": { "type": "Point", "coordinates": [ 73.3717, 16.7962 ] } },
{ "type": "Feature", "properties": { "state": "Maharashtra", "page": 159, "point": 117, "lon": 73.8576, "lat": 19.2728 }, "geometry": { "type": "Point", "coordinates": [ 73.8576, 19.2728 ] } },
{ "type": "Feature", "properties": { "state": "Maharashtra", "page": 159, "point": 84, "lon": 73.4256, "lat": 16.8789 }, "geometry": { "type": "Point", "coordinates": [ 73.4256, 16.8789 ] } },
{ "type": "Feature", "properties": { "state": "Maharashtra", "page": 159, "point": 120, "lon": 73.7481, "lat": 19.5626 }, "geometry": { "type": "Point", "coordinates": [ 73.7481, 19.5626 ] } },
{ "type": "Feature", "properties": { "state": "Maharashtra", "page": 159, "point": 85, "lon": 73.452, "lat": 16.9324 }, "geometry": { "type": "Point", "coordinates": [ 73.452, 16.9324 ] } },
{ "type": "Feature", "properties": { "state": "Maharashtra", "page": 159, "point": 121, "lon": 74.1112, "lat": 19.8825 }, "geometry": { "type": "Point", "coordinates": [ 74.1112, 19.8825 ] } },
{ "type": "Feature", "properties": { "state": "Maharashtra", "page": 159, "point": 86, "lon": 73.5682, "lat": 17.0074 }, "geometry": { "type": "Point", "coordinates": [ 73.5682, 17.0074 ] } },
{ "type": "Feature", "properties": { "state": "Maharashtra", "page": 159, "point": 123, "lon": 74.0361, "lat": 18.2506 }, "geometry": { "type": "Point", "coordinates": [ 74.0361, 18.2506 ] } },
{ "type": "Feature", "properties": { "state": "Maharashtra", "page": 159, "point": 87, "lon": 73.4826, "lat": 17.2027 }, "geometry": { "type": "Point", "coordinates": [ 73.4826, 17.2027 ] } },
{ "type": "Feature", "properties": { "state": "Maharashtra", "page": 159, "point": 124, "lon": 74.1293, "lat": 18.2123 }, "geometry": { "type": "Point", "coordinates": [ 74.1293, 18.2123 ] } },
{ "type": "Feature", "properties": { "state": "Maharashtra", "page": 159, "point": 88, "lon": 73.4341, "lat": 17.3787 }, "geometry": { "type": "Point", "coordinates": [ 73.4341, 17.3787 ] } },
{ "type": "Feature", "properties": { "state": "Maharashtra", "page": 159, "point": 125, "lon": 73.9262, "lat": 20.8634 }, "geometry": { "type": "Point", "coordinates": [ 73.9262, 20.8634 ] } },
{ "type": "Feature", "properties": { "state": "Maharashtra", "page": 159, "point": 89, "lon": 73.5529, "lat": 17.4818 }, "geometry": { "type": "Point", "coordinates": [ 73.5529, 17.4818 ] } },
{ "type": "Feature", "properties": { "state": "Maharashtra", "page": 159, "point": 127, "lon": 74.0179, "lat": 19.2985 }, "geometry": { "type": "Point", "coordinates": [ 74.0179, 19.2985 ] } },
{ "type": "Feature", "properties": { "state": "Maharashtra", "page": 159, "point": 90, "lon": 74.2737, "lat": 15.8547 }, "geometry": { "type": "Point", "coordinates": [ 74.2737, 15.8547 ] } },
{ "type": "Feature", "properties": { "state": "Maharashtra", "page": 159, "point": 128, "lon": 74.2116, "lat": 15.7818 }, "geometry": { "type": "Point", "coordinates": [ 74.2116, 15.7818 ] } },
{ "type": "Feature", "properties": { "state": "Maharashtra", "page": 159, "point": 91, "lon": 74.1505, "lat": 15.9612 }, "geometry": { "type": "Point", "coordinates": [ 74.1505, 15.9612 ] } },
{ "type": "Feature", "properties": { "state": "Maharashtra", "page": 159, "point": 129, "lon": 74.3292, "lat": 15.7708 }, "geometry": { "type": "Point", "coordinates": [ 74.3292, 15.7708 ] } },
{ "type": "Feature", "properties": { "state": "Maharashtra", "page": 159, "point": 92, "lon": 74.2395, "lat": 16.0693 }, "geometry": { "type": "Point", "coordinates": [ 74.2395, 16.0693 ] } },
{ "type": "Feature", "properties": { "state": "Maharashtra", "page": 159, "point": 131, "lon": 74.0329, "lat": 17.0921 }, "geometry": { "type": "Point", "coordinates": [ 74.0329, 17.0921 ] } },
{ "type": "Feature", "properties": { "state": "Maharashtra", "page": 159, "point": 93, "lon": 74.1872, "lat": 16.1125 }, "geometry": { "type": "Point", "coordinates": [ 74.1872, 16.1125 ] } },
{ "type": "Feature", "properties": { "state": "Maharashtra", "page": 159, "point": 132, "lon": 73.2838, "lat": 20.1816 }, "geometry": { "type": "Point", "coordinates": [ 73.2838, 20.1816 ] } },
{ "type": "Feature", "properties": { "state": "Maharashtra", "page": 159, "point": 94, "lon": 74.1853, "lat": 16.2414 }, "geometry": { "type": "Point", "coordinates": [ 74.1853, 16.2414 ] } },
{ "type": "Feature", "properties": { "state": "Maharashtra", "page": 159, "point": 133, "lon": 73.8762, "lat": 15.7646 }, "geometry": { "type": "Point", "coordinates": [ 73.8762, 15.7646 ] } },
{ "type": "Feature", "properties": { "state": "Maharashtra", "page": 159, "point": 95, "lon": 74.111, "lat": 16.2907 }, "geometry": { "type": "Point", "coordinates": [ 74.111, 16.2907 ] } },
{ "type": "Feature", "properties": { "state": "Maharashtra", "page": 159, "point": 134, "lon": 73.2917, "lat": 18.0346 }, "geometry": { "type": "Point", "coordinates": [ 73.2917, 18.0346 ] } },
{ "type": "Feature", "properties": { "state": "Maharashtra", "page": 159, "point": 96, "lon": 74.0468, "lat": 16.438 }, "geometry": { "type": "Point", "coordinates": [ 74.0468, 16.438 ] } },
{ "type": "Feature", "properties": { "state": "Maharashtra", "page": 159, "point": 135, "lon": 73.8744, "lat": 18.0533 }, "geometry": { "type": "Point", "coordinates": [ 73.8744, 18.0533 ] } },
{ "type": "Feature", "properties": { "state": "Maharashtra", "page": 159, "point": 97, "lon": 73.9774, "lat": 16.5363 }, "geometry": { "type": "Point", "coordinates": [ 73.9774, 16.5363 ] } },
{ "type": "Feature", "properties": { "state": "Maharashtra", "page": 159, "point": 136, "lon": 73.2079, "lat": 20.1065 }, "geometry": { "type": "Point", "coordinates": [ 73.2079, 20.1065 ] } },
{ "type": "Feature", "properties": { "state": "Maharashtra", "page": 159, "point": 98, "lon": 74.0095, "lat": 16.6283 }, "geometry": { "type": "Point", "coordinates": [ 74.0095, 16.6283 ] } },
{ "type": "Feature", "properties": { "state": "Maharashtra", "page": 159, "point": 137, "lon": 73.4285, "lat": 20.4364 }, "geometry": { "type": "Point", "coordinates": [ 73.4285, 20.4364 ] } },
{ "type": "Feature", "properties": { "state": "Maharashtra", "page": 159, "point": 99, "lon": 73.9938, "lat": 16.7393 }, "geometry": { "type": "Point", "coordinates": [ 73.9938, 16.7393 ] } },
{ "type": "Feature", "properties": { "state": "Maharashtra", "page": 159, "point": 138, "lon": 73.4266, "lat": 20.3054 }, "geometry": { "type": "Point", "coordinates": [ 73.4266, 20.3054 ] } },
{ "type": "Feature", "properties": { "state": "Maharashtra", "page": 159, "point": 100, "lon": 73.9498, "lat": 16.8317 }, "geometry": { "type": "Point", "coordinates": [ 73.9498, 16.8317 ] } },
{ "type": "Feature", "properties": { "state": "Maharashtra", "page": 159, "point": 139, "lon": 73.416, "lat": 20.2726 }, "geometry": { "type": "Point", "coordinates": [ 73.416, 20.2726 ] } },
{ "type": "Feature", "properties": { "state": "Maharashtra", "page": 159, "point": 101, "lon": 73.9167, "lat": 17.0049 }, "geometry": { "type": "Point", "coordinates": [ 73.9167, 17.0049 ] } },
{ "type": "Feature", "properties": { "state": "Maharashtra", "page": 159, "point": 140, "lon": 73.3578, "lat": 20.1963 }, "geometry": { "type": "Point", "coordinates": [ 73.3578, 20.1963 ] } },
{ "type": "Feature", "properties": { "state": "Maharashtra", "page": 159, "point": 102, "lon": 73.9114, "lat": 17.2037 }, "geometry": { "type": "Point", "coordinates": [ 73.9114, 17.2037 ] } },
{ "type": "Feature", "properties": { "state": "Maharashtra", "page": 159, "point": 141, "lon": 73.501, "lat": 20.6588 }, "geometry": { "type": "Point", "coordinates": [ 73.501, 20.6588 ] } },
{ "type": "Feature", "properties": { "state": "Maharashtra", "page": 159, "point": 103, "lon": 73.9035, "lat": 17.2977 }, "geometry": { "type": "Point", "coordinates": [ 73.9035, 17.2977 ] } },
{ "type": "Feature", "properties": { "state": "Maharashtra", "page": 159, "point": 142, "lon": 73.6228, "lat": 20.6055 }, "geometry": { "type": "Point", "coordinates": [ 73.6228, 20.6055 ] } },
{ "type": "Feature", "properties": { "state": "Maharashtra", "page": 159, "point": 105, "lon": 73.907, "lat": 17.5424 }, "geometry": { "type": "Point", "coordinates": [ 73.907, 17.5424 ] } },
{ "type": "Feature", "properties": { "state": "Maharashtra", "page": 159, "point": 143, "lon": 73.6677, "lat": 21.1502 }, "geometry": { "type": "Point", "coordinates": [ 73.6677, 21.1502 ] } },
{ "type": "Feature", "properties": { "state": "Maharashtra", "page": 159, "point": 106, "lon": 73.8982, "lat": 17.7378 }, "geometry": { "type": "Point", "coordinates": [ 73.8982, 17.7378 ] } },
{ "type": "Feature", "properties": { "state": "Maharashtra", "page": 159, "point": 144, "lon": 73.6165, "lat": 21.1373 }, "geometry": { "type": "Point", "coordinates": [ 73.6165, 21.1373 ] } },
{ "type": "Feature", "properties": { "state": "Maharashtra", "page": 159, "point": 107, "lon": 73.7499, "lat": 17.8679 }, "geometry": { "type": "Point", "coordinates": [ 73.7499, 17.8679 ] } },
{ "type": "Feature", "properties": { "state": "Maharashtra", "page": 159, "point": 145, "lon": 73.6692, "lat": 21.1088 }, "geometry": { "type": "Point", "coordinates": [ 73.6692, 21.1088 ] } },
{ "type": "Feature", "properties": { "state": "Maharashtra", "page": 159, "point": 108, "lon": 73.7291, "lat": 17.9999 }, "geometry": { "type": "Point", "coordinates": [ 73.7291, 17.9999 ] } },
{ "type": "Feature", "properties": { "state": "Goa", "page": 160, "point": 1, "lon": 74.061, "lat": 15.6167 }, "geometry": { "type": "Point", "coordinates": [ 74.061, 15.6167 ] } },
{ "type": "Feature", "properties": { "state": "Goa", "page": 161, "point": 2, "lon": 74.0747, "lat": 15.585 }, "geometry": { "type": "Point", "coordinates": [ 74.0747, 15.585 ] } },
{ "type": "Feature", "properties": { "state": "Goa", "page": 161, "point": 3, "lon": 74.0886, "lat": 15.5509 }, "geometry": { "type": "Point", "coordinates": [ 74.0886, 15.5509 ] } },
{ "type": "Feature", "properties": { "state": "Goa", "page": 161, "point": 4, "lon": 74.082, "lat": 15.5315 }, "geometry": { "type": "Point", "coordinates": [ 74.082, 15.5315 ] } },
{ "type": "Feature", "properties": { "state": "Goa", "page": 161, "point": 5, "lon": 74.0956, "lat": 15.5021 }, "geometry": { "type": "Point", "coordinates": [ 74.0956, 15.5021 ] } },
{ "type": "Feature", "properties": { "state": "Goa", "page": 161, "point": 6, "lon": 74.1345, "lat": 15.5168 }, "geometry": { "type": "Point", "coordinates": [ 74.1345, 15.5168 ] } },
{ "type": "Feature", "properties": { "state": "Goa", "page": 161, "point": 7, "lon": 74.1222, "lat": 15.4865 }, "geometry": { "type": "Point", "coordinates": [ 74.1222, 15.4865 ] } },
{ "type": "Feature", "properties": { "state": "Goa", "page": 161, "point": 8, "lon": 74.0765, "lat": 15.4595 }, "geometry": { "type": "Point", "coordinates": [ 74.0765, 15.4595 ] } },
{ "type": "Feature", "properties": { "state": "Goa", "page": 161, "point": 9, "lon": 74.0736, "lat": 15.4127 }, "geometry": { "type": "Point", "coordinates": [ 74.0736, 15.4127 ] } },
{ "type": "Feature", "properties": { "state": "Goa", "page": 161, "point": 10, "lon": 74.1451, "lat": 15.3546 }, "geometry": { "type": "Point", "coordinates": [ 74.1451, 15.3546 ] } },
{ "type": "Feature", "properties": { "state": "Goa", "page": 161, "point": 11, "lon": 74.1572, "lat": 15.2726 }, "geometry": { "type": "Point", "coordinates": [ 74.1572, 15.2726 ] } },
{ "type": "Feature", "properties": { "state": "Goa", "page": 161, "point": 12, "lon": 74.1658, "lat": 15.2156 }, "geometry": { "type": "Point", "coordinates": [ 74.1658, 15.2156 ] } },
{ "type": "Feature", "properties": { "state": "Goa", "page": 161, "point": 13, "lon": 74.1222, "lat": 15.172 }, "geometry": { "type": "Point", "coordinates": [ 74.1222, 15.172 ] } },
{ "type": "Feature", "properties": { "state": "Goa", "page": 161, "point": 14, "lon": 74.0698, "lat": 15.1603 }, "geometry": { "type": "Point", "coordinates": [ 74.0698, 15.1603 ] } },
{ "type": "Feature", "properties": { "state": "Goa", "page": 161, "point": 15, "lon": 74.1028, "lat": 15.1079 }, "geometry": { "type": "Point", "coordinates": [ 74.1028, 15.1079 ] } },
{ "type": "Feature", "properties": { "state": "Goa", "page": 161, "point": 16, "lon": 74.1737, "lat": 15.0881 }, "geometry": { "type": "Point", "coordinates": [ 74.1737, 15.0881 ] } },
{ "type": "Feature", "properties": { "state": "Goa", "page": 161, "point": 17, "lon": 74.1586, "lat": 15.0672 }, "geometry": { "type": "Point", "coordinates": [ 74.1586, 15.0672 ] } },
{ "type": "Feature", "properties": { "state": "Goa", "page": 161, "point": 18, "lon": 74.097, "lat": 15.042 }, "geometry": { "type": "Point", "coordinates": [ 74.097, 15.042 ] } },
{ "type": "Feature", "properties": { "state": "Goa", "page": 161, "point": 19, "lon": 74.0633, "lat": 14.9976 }, "geometry": { "type": "Point", "coordinates": [ 74.0633, 14.9976 ] } },
{ "type": "Feature", "properties": { "state": "Goa", "page": 161, "point": 20, "lon": 74.0904, "lat": 15.3369 }, "geometry": { "type": "Point", "coordinates": [ 74.0904, 15.3369 ] } },
{ "type": "Feature", "properties": { "state": "Goa", "page": 161, "point": 21, "lon": 74.1355, "lat": 15.2921 }, "geometry": { "type": "Point", "coordinates": [ 74.1355, 15.2921 ] } },
{ "type": "Feature", "properties": { "state": "Goa", "page": 161, "point": 22, "lon": 74.0895, "lat": 15.3022 }, "geometry": { "type": "Point", "coordinates": [ 74.0895, 15.3022 ] } },
{ "type": "Feature", "properties": { "state": "Goa", "page": 161, "point": 23, "lon": 74.0471, "lat": 15.6247 }, "geometry": { "type": "Point", "coordinates": [ 74.0471, 15.6247 ] } },
{ "type": "Feature", "properties": { "state": "Goa", "page": 161, "point": 24, "lon": 74.1187, "lat": 15.6524 }, "geometry": { "type": "Point", "coordinates": [ 74.1187, 15.6524 ] } },
{ "type": "Feature", "properties": { "state": "Goa", "page": 161, "point": 25, "lon": 74.1191, "lat": 15.4324 }, "geometry": { "type": "Point", "coordinates": [ 74.1191, 15.4324 ] } },
{ "type": "Feature", "properties": { "state": "Goa", "page": 161, "point": 26, "lon": 74.1723, "lat": 15.1895 }, "geometry": { "type": "Point", "coordinates": [ 74.1723, 15.1895 ] } },
{ "type": "Feature", "properties": { "state": "Goa", "page": 161, "point": 27, "lon": 74.2903, "lat": 15.2865 }, "geometry": { "type": "Point", "coordinates": [ 74.2903, 15.2865 ] } },
{ "type": "Feature", "properties": { "state": "Goa", "page": 161, "point": 28, "lon": 74.2845, "lat": 15.3846 }, "geometry": { "type": "Point", "coordinates": [ 74.2845, 15.3846 ] } },
{ "type": "Feature", "properties": { "state": "Goa", "page": 161, "point": 30, "lon": 74.2842, "lat": 15.139 }, "geometry": { "type": "Point", "coordinates": [ 74.2842, 15.139 ] } },
{ "type": "Feature", "properties": { "state": "Goa", "page": 161, "point": 31, "lon": 74.2565, "lat": 14.9944 }, "geometry": { "type": "Point", "coordinates": [ 74.2565, 14.9944 ] } },
{ "type": "Feature", "properties": { "state": "Goa", "page": 161, "point": 32, "lon": 74.0886, "lat": 14.8973 }, "geometry": { "type": "Point", "coordinates": [ 74.0886, 14.8973 ] } },
{ "type": "Feature", "properties": { "state": "Goa", "page": 161, "point": 33, "lon": 73.954, "lat": 15.0733 }, "geometry": { "type": "Point", "coordinates": [ 73.954, 15.0733 ] } },
{ "type": "Feature", "properties": { "state": "Goa", "page": 161, "point": 34, "lon": 74.0037, "lat": 15.0992 }, "geometry": { "type": "Point", "coordinates": [ 74.0037, 15.0992 ] } },
{ "type": "Feature", "properties": { "state": "Goa", "page": 161, "point": 35, "lon": 73.9808, "lat": 15.0539 }, "geometry": { "type": "Point", "coordinates": [ 73.9808, 15.0539 ] } },
{ "type": "Feature", "properties": { "state": "Goa", "page": 161, "point": 36, "lon": 74.0384, "lat": 14.9855 }, "geometry": { "type": "Point", "coordinates": [ 74.0384, 14.9855 ] } },
{ "type": "Feature", "properties": { "state": "Goa", "page": 161, "point": 37, "lon": 74.1823, "lat": 15.0414 }, "geometry": { "type": "Point", "coordinates": [ 74.1823, 15.0414 ] } },
{ "type": "Feature", "properties": { "state": "Goa", "page": 161, "point": 38, "lon": 74.1574, "lat": 15.1446 }, "geometry": { "type": "Point", "coordinates": [ 74.1574, 15.1446 ] } },
{ "type": "Feature", "properties": { "state": "Goa", "page": 161, "point": 39, "lon": 74.1075, "lat": 15.284 }, "geometry": { "type": "Point", "coordinates": [ 74.1075, 15.284 ] } },
{ "type": "Feature", "properties": { "state": "Goa", "page": 161, "point": 40, "lon": 74.2832, "lat": 15.5271 }, "geometry": { "type": "Point", "coordinates": [ 74.2832, 15.5271 ] } },
{ "type": "Feature", "properties": { "state": "Karnataka", "page": 163, "point": 1, "lon": 74.4129, "lat": 15.6723 }, "geometry": { "type": "Point", "coordinates": [ 74.4129, 15.6723 ] } },
{ "type": "Feature", "properties": { "state": "Karnataka", "page": 163, "point": 32, "lon": 74.7493, "lat": 13.7269 }, "geometry": { "type": "Point", "coordinates": [ 74.7493, 13.7269 ] } },
{ "type": "Feature", "properties": { "state": "Karnataka", "page": 163, "point": 2, "lon": 74.4876, "lat": 15.5252 }, "geometry": { "type": "Point", "coordinates": [ 74.4876, 15.5252 ] } },
{ "type": "Feature", "properties": { "state": "Karnataka", "page": 163, "point": 33, "lon": 74.6565, "lat": 13.8462 }, "geometry": { "type": "Point", "coordinates": [ 74.6565, 13.8462 ] } },
{ "type": "Feature", "properties": { "state": "Karnataka", "page": 163, "point": 3, "lon": 74.6629, "lat": 15.4352 }, "geometry": { "type": "Point", "coordinates": [ 74.6629, 15.4352 ] } },
{ "type": "Feature", "properties": { "state": "Karnataka", "page": 163, "point": 34, "lon": 74.5589, "lat": 14.0847 }, "geometry": { "type": "Point", "coordinates": [ 74.5589, 14.0847 ] } },
{ "type": "Feature", "properties": { "state": "Karnataka", "page": 163, "point": 4, "lon": 74.5932, "lat": 15.2894 }, "geometry": { "type": "Point", "coordinates": [ 74.5932, 15.2894 ] } },
{ "type": "Feature", "properties": { "state": "Karnataka", "page": 163, "point": 35, "lon": 74.5099, "lat": 14.375 }, "geometry": { "type": "Point", "coordinates": [ 74.5099, 14.375 ] } },
{ "type": "Feature", "properties": { "state": "Karnataka", "page": 163, "point": 5, "lon": 74.66, "lat": 15.0722 }, "geometry": { "type": "Point", "coordinates": [ 74.66, 15.0722 ] } },
{ "type": "Feature", "properties": { "state": "Karnataka", "page": 163, "point": 36, "lon": 74.3415, "lat": 15.7662 }, "geometry": { "type": "Point", "coordinates": [ 74.3415, 15.7662 ] } },
{ "type": "Feature", "properties": { "state": "Karnataka", "page": 163, "point": 6, "lon": 74.8283, "lat": 15.1482 }, "geometry": { "type": "Point", "coordinates": [ 74.8283, 15.1482 ] } },
{ "type": "Feature", "properties": { "state": "Karnataka", "page": 163, "point": 37, "lon": 74.1127, "lat": 14.9139 }, "geometry": { "type": "Point", "coordinates": [ 74.1127, 14.9139 ] } },
{ "type": "Feature", "properties": { "state": "Karnataka", "page": 163, "point": 7, "lon": 74.8796, "lat": 14.967 }, "geometry": { "type": "Point", "coordinates": [ 74.8796, 14.967 ] } },
{ "type": "Feature", "properties": { "state": "Karnataka", "page": 163, "point": 38, "lon": 74.4032, "lat": 14.6117 }, "geometry": { "type": "Point", "coordinates": [ 74.4032, 14.6117 ] } },
{ "type": "Feature", "properties": { "state": "Karnataka", "page": 163, "point": 8, "lon": 74.9464, "lat": 14.8263 }, "geometry": { "type": "Point", "coordinates": [ 74.9464, 14.8263 ] } },
{ "type": "Feature", "properties": { "state": "Karnataka", "page": 163, "point": 39, "lon": 74.5263, "lat": 14.2409 }, "geometry": { "type": "Point", "coordinates": [ 74.5263, 14.2409 ] } },
{ "type": "Feature", "properties": { "state": "Karnataka", "page": 163, "point": 9, "lon": 75.011, "lat": 14.556 }, "geometry": { "type": "Point", "coordinates": [ 75.011, 14.556 ] } },
{ "type": "Feature", "properties": { "state": "Karnataka", "page": 163, "point": 40, "lon": 74.4801, "lat": 14.1365 }, "geometry": { "type": "Point", "coordinates": [ 74.4801, 14.1365 ] } },
{ "type": "Feature", "properties": { "state": "Karnataka", "page": 163, "point": 10, "lon": 74.8652, "lat": 14.2586 }, "geometry": { "type": "Point", "coordinates": [ 74.8652, 14.2586 ] } },
{ "type": "Feature", "properties": { "state": "Karnataka", "page": 163, "point": 41, "lon": 75.3164, "lat": 12.4984 }, "geometry": { "type": "Point", "coordinates": [ 75.3164, 12.4984 ] } },
{ "type": "Feature", "properties": { "state": "Karnataka", "page": 163, "point": 11, "lon": 75.4945, "lat": 14.0639 }, "geometry": { "type": "Point", "coordinates": [ 75.4945, 14.0639 ] } },
{ "type": "Feature", "properties": { "state": "Karnataka", "page": 163, "point": 42, "lon": 75.6327, "lat": 13.0114 }, "geometry": { "type": "Point", "coordinates": [ 75.6327, 13.0114 ] } },
{ "type": "Feature", "properties": { "state": "Karnataka", "page": 163, "point": 12, "lon": 75.6272, "lat": 13.7396 }, "geometry": { "type": "Point", "coordinates": [ 75.6272, 13.7396 ] } },
{ "type": "Feature", "properties": { "state": "Karnataka", "page": 163, "point": 43, "lon": 75.7697, "lat": 12.6816 }, "geometry": { "type": "Point", "coordinates": [ 75.7697, 12.6816 ] } },
{ "type": "Feature", "properties": { "state": "Karnataka", "page": 163, "point": 13, "lon": 75.7526, "lat": 13.6307 }, "geometry": { "type": "Point", "coordinates": [ 75.7526, 13.6307 ] } },
{ "type": "Feature", "properties": { "state": "Karnataka", "page": 163, "point": 44, "lon": 76.5561, "lat": 11.8571 }, "geometry": { "type": "Point", "coordinates": [ 76.5561, 11.8571 ] } },
{ "type": "Feature", "properties": { "state": "Karnataka", "page": 163, "point": 14, "lon": 75.8488, "lat": 13.3619 }, "geometry": { "type": "Point", "coordinates": [ 75.8488, 13.3619 ] } },
{ "type": "Feature", "properties": { "state": "Karnataka", "page": 163, "point": 15, "lon": 75.6886, "lat": 12.9701 }, "geometry": { "type": "Point", "coordinates": [ 75.6886, 12.9701 ] } },
{ "type": "Feature", "properties": { "state": "Karnataka", "page": 163, "point": 46, "lon": 75.4844, "lat": 14.1767 }, "geometry": { "type": "Point", "coordinates": [ 75.4844, 14.1767 ] } },
{ "type": "Feature", "properties": { "state": "Karnataka", "page": 163, "point": 16, "lon": 75.7594, "lat": 12.6417 }, "geometry": { "type": "Point", "coordinates": [ 75.7594, 12.6417 ] } },
{ "type": "Feature", "properties": { "state": "Karnataka", "page": 163, "point": 47, "lon": 75.1941, "lat": 14.2836 }, "geometry": { "type": "Point", "coordinates": [ 75.1941, 14.2836 ] } },
{ "type": "Feature", "properties": { "state": "Karnataka", "page": 163, "point": 17, "lon": 75.7, "lat": 12.3889 }, "geometry": { "type": "Point", "coordinates": [ 75.7, 12.3889 ] } },
{ "type": "Feature", "properties": { "state": "Karnataka", "page": 163, "point": 48, "lon": 74.95, "lat": 14.396 }, "geometry": { "type": "Point", "coordinates": [ 74.95, 14.396 ] } },
{ "type": "Feature", "properties": { "state": "Karnataka", "page": 163, "point": 18, "lon": 75.798, "lat": 12.1444 }, "geometry": { "type": "Point", "coordinates": [ 75.798, 12.1444 ] } },
{ "type": "Feature", "properties": { "state": "Karnataka", "page": 163, "point": 49, "lon": 74.9011, "lat": 15.0293 }, "geometry": { "type": "Point", "coordinates": [ 74.9011, 15.0293 ] } },
{ "type": "Feature", "properties": { "state": "Karnataka", "page": 163, "point": 19, "lon": 76.063, "lat": 12.1388 }, "geometry": { "type": "Point", "coordinates": [ 76.063, 12.1388 ] } },
{ "type": "Feature", "properties": { "state": "Karnataka", "page": 163, "point": 50, "lon": 74.6538, "lat": 15.3973 }, "geometry": { "type": "Point", "coordinates": [ 74.6538, 15.3973 ] } },
{ "type": "Feature", "properties": { "state": "Karnataka", "page": 163, "point": 21, "lon": 75.9291, "lat": 12.5904 }, "geometry": { "type": "Point", "coordinates": [ 75.9291, 12.5904 ] } },
{ "type": "Feature", "properties": { "state": "Karnataka", "page": 163, "point": 51, "lon": 75.6091, "lat": 13.7619 }, "geometry": { "type": "Point", "coordinates": [ 75.6091, 13.7619 ] } },
{ "type": "Feature", "properties": { "state": "Karnataka", "page": 163, "point": 22, "lon": 76.0666, "lat": 12.2477 }, "geometry": { "type": "Point", "coordinates": [ 76.0666, 12.2477 ] } },
{ "type": "Feature", "properties": { "state": "Karnataka", "page": 163, "point": 52, "lon": 75.6079, "lat": 13.8175 }, "geometry": { "type": "Point", "coordinates": [ 75.6079, 13.8175 ] } },
{ "type": "Feature", "properties": { "state": "Karnataka", "page": 163, "point": 23, "lon": 76.2529, "lat": 12.1801 }, "geometry": { "type": "Point", "coordinates": [ 76.2529, 12.1801 ] } },
{ "type": "Feature", "properties": { "state": "Karnataka", "page": 163, "point": 53, "lon": 75.8127, "lat": 13.5053 }, "geometry": { "type": "Point", "coordinates": [ 75.8127, 13.5053 ] } },
{ "type": "Feature", "properties": { "state": "Karnataka", "page": 163, "point": 24, "lon": 76.4395, "lat": 11.964 }, "geometry": { "type": "Point", "coordinates": [ 76.4395, 11.964 ] } },
{ "type": "Feature", "properties": { "state": "Karnataka", "page": 163, "point": 54, "lon": 75.8119, "lat": 13.4009 }, "geometry": { "type": "Point", "coordinates": [ 75.8119, 13.4009 ] } },
{ "type": "Feature", "properties": { "state": "Karnataka", "page": 163, "point": 25, "lon": 76.6229, "lat": 11.8531 }, "geometry": { "type": "Point", "coordinates": [ 76.6229, 11.8531 ] } },
{ "type": "Feature", "properties": { "state": "Karnataka", "page": 163, "point": 55, "lon": 75.6333, "lat": 13.1691 }, "geometry": { "type": "Point", "coordinates": [ 75.6333, 13.1691 ] } },
{ "type": "Feature", "properties": { "state": "Karnataka", "page": 163, "point": 27, "lon": 75.4768, "lat": 12.6429 }, "geometry": { "type": "Point", "coordinates": [ 75.4768, 12.6429 ] } },
{ "type": "Feature", "properties": { "state": "Karnataka", "page": 163, "point": 56, "lon": 75.78, "lat": 12.4875 }, "geometry": { "type": "Point", "coordinates": [ 75.78, 12.4875 ] } },
{ "type": "Feature", "properties": { "state": "Karnataka", "page": 163, "point": 28, "lon": 75.4099, "lat": 12.73 }, "geometry": { "type": "Point", "coordinates": [ 75.4099, 12.73 ] } },
{ "type": "Feature", "properties": { "state": "Karnataka", "page": 163, "point": 57, "lon": 75.9165, "lat": 12.388 }, "geometry": { "type": "Point", "coordinates": [ 75.9165, 12.388 ] } },
{ "type": "Feature", "properties": { "state": "Karnataka", "page": 163, "point": 29, "lon": 75.3231, "lat": 13.0082 }, "geometry": { "type": "Point", "coordinates": [ 75.3231, 13.0082 ] } },
{ "type": "Feature", "properties": { "state": "Karnataka", "page": 163, "point": 58, "lon": 76.087, "lat": 11.9669 }, "geometry": { "type": "Point", "coordinates": [ 76.087, 11.9669 ] } },
{ "type": "Feature", "properties": { "state": "Karnataka", "page": 163, "point": 30, "lon": 75.0113, "lat": 13.236 }, "geometry": { "type": "Point", "coordinates": [ 75.0113, 13.236 ] } },
{ "type": "Feature", "properties": { "state": "Karnataka", "page": 163, "point": 59, "lon": 76.8555, "lat": 11.6903 }, "geometry": { "type": "Point", "coordinates": [ 76.8555, 11.6903 ] } },
{ "type": "Feature", "properties": { "state": "Karnataka", "page": 163, "point": 31, "lon": 74.9341, "lat": 13.4982 }, "geometry": { "type": "Point", "coordinates": [ 74.9341, 13.4982 ] } },
{ "type": "Feature", "properties": { "state": "Karnataka", "page": 163, "point": 60, "lon": 75.9437, "lat": 12.8503 }, "geometry": { "type": "Point", "coordinates": [ 75.9437, 12.8503 ] } },
{ "type": "Feature", "properties": { "state": "Tamil Nadu", "page": 165, "point": 1, "lon": 76.3587, "lat": 11.5908 }, "geometry": { "type": "Point", "coordinates": [ 76.3587, 11.5908 ] } },
{ "type": "Feature", "properties": { "state": "Tamil Nadu", "page": 165, "point": 37, "lon": 77.2622, "lat": 10.262 }, "geometry": { "type": "Point", "coordinates": [ 77.2622, 10.262 ] } },
{ "type": "Feature", "properties": { "state": "Tamil Nadu", "page": 165, "point": 2, "lon": 76.484, "lat": 11.5287 }, "geometry": { "type": "Point", "coordinates": [ 76.484, 11.5287 ] } },
{ "type": "Feature", "properties": { "state": "Tamil Nadu", "page": 165, "point": 38, "lon": 77.2896, "lat": 10.231 }, "geometry": { "type": "Point", "coordinates": [ 77.2896, 10.231 ] } },
{ "type": "Feature", "properties": { "state": "Tamil Nadu", "page": 165, "point": 3, "lon": 76.2936, "lat": 11.4753 }, "geometry": { "type": "Point", "coordinates": [ 76.2936, 11.4753 ] } },
{ "type": "Feature", "properties": { "state": "Tamil Nadu", "page": 165, "point": 39, "lon": 77.3497, "lat": 10.2701 }, "geometry": { "type": "Point", "coordinates": [ 77.3497, 10.2701 ] } },
{ "type": "Feature", "properties": { "state": "Tamil Nadu", "page": 165, "point": 4, "lon": 76.4141, "lat": 11.4403 }, "geometry": { "type": "Point", "coordinates": [ 76.4141, 11.4403 ] } },
{ "type": "Feature", "properties": { "state": "Tamil Nadu", "page": 165, "point": 40, "lon": 77.3928, "lat": 10.2299 }, "geometry": { "type": "Point", "coordinates": [ 77.3928, 10.2299 ] } },
{ "type": "Feature", "properties": { "state": "Tamil Nadu", "page": 165, "point": 5, "lon": 76.5232, "lat": 11.3701 }, "geometry": { "type": "Point", "coordinates": [ 76.5232, 11.3701 ] } },
{ "type": "Feature", "properties": { "state": "Tamil Nadu", "page": 165, "point": 41, "lon": 77.4353, "lat": 10.2976 }, "geometry": { "type": "Point", "coordinates": [ 77.4353, 10.2976 ] } },
{ "type": "Feature", "properties": { "state": "Tamil Nadu", "page": 165, "point": 6, "lon": 76.6616, "lat": 11.4376 }, "geometry": { "type": "Point", "coordinates": [ 76.6616, 11.4376 ] } },
{ "type": "Feature", "properties": { "state": "Tamil Nadu", "page": 165, "point": 42, "lon": 77.4089, "lat": 10.3664 }, "geometry": { "type": "Point", "coordinates": [ 77.4089, 10.3664 ] } },
{ "type": "Feature", "properties": { "state": "Tamil Nadu", "page": 165, "point": 7, "lon": 76.7509, "lat": 11.6147 }, "geometry": { "type": "Point", "coordinates": [ 76.7509, 11.6147 ] } },
{ "type": "Feature", "properties": { "state": "Tamil Nadu", "page": 165, "point": 43, "lon": 77.5377, "lat": 10.3861 }, "geometry": { "type": "Point", "coordinates": [ 77.5377, 10.3861 ] } },
{ "type": "Feature", "properties": { "state": "Tamil Nadu", "page": 165, "point": 8, "lon": 76.5443, "lat": 11.6855 }, "geometry": { "type": "Point", "coordinates": [ 76.5443, 11.6855 ] } },
{ "type": "Feature", "properties": { "state": "Tamil Nadu", "page": 165, "point": 44, "lon": 77.5389, "lat": 10.2938 }, "geometry": { "type": "Point", "coordinates": [ 77.5389, 10.2938 ] } },
{ "type": "Feature", "properties": { "state": "Tamil Nadu", "page": 165, "point": 9, "lon": 76.5505, "lat": 11.3356 }, "geometry": { "type": "Point", "coordinates": [ 76.5505, 11.3356 ] } },
{ "type": "Feature", "properties": { "state": "Tamil Nadu", "page": 165, "point": 45, "lon": 77.6344, "lat": 10.2687 }, "geometry": { "type": "Point", "coordinates": [ 77.6344, 10.2687 ] } },
{ "type": "Feature", "properties": { "state": "Tamil Nadu", "page": 165, "point": 10, "lon": 76.8576, "lat": 11.3275 }, "geometry": { "type": "Point", "coordinates": [ 76.8576, 11.3275 ] } },
{ "type": "Feature", "properties": { "state": "Tamil Nadu", "page": 165, "point": 46, "lon": 77.7063, "lat": 10.2348 }, "geometry": { "type": "Point", "coordinates": [ 77.7063, 10.2348 ] } },
{ "type": "Feature", "properties": { "state": "Tamil Nadu", "page": 165, "point": 11, "lon": 76.8158, "lat": 11.2267 }, "geometry": { "type": "Point", "coordinates": [ 76.8158, 11.2267 ] } },
{ "type": "Feature", "properties": { "state": "Tamil Nadu", "page": 165, "point": 47, "lon": 77.7317, "lat": 10.3423 }, "geometry": { "type": "Point", "coordinates": [ 77.7317, 10.3423 ] } },
{ "type": "Feature", "properties": { "state": "Tamil Nadu", "page": 165, "point": 12, "lon": 76.979, "lat": 11.3812 }, "geometry": { "type": "Point", "coordinates": [ 76.979, 11.3812 ] } },
{ "type": "Feature", "properties": { "state": "Tamil Nadu", "page": 165, "point": 48, "lon": 77.7157, "lat": 10.3833 }, "geometry": { "type": "Point", "coordinates": [ 77.7157, 10.3833 ] } },
{ "type": "Feature", "properties": { "state": "Tamil Nadu", "page": 165, "point": 13, "lon": 76.8468, "lat": 11.5823 }, "geometry": { "type": "Point", "coordinates": [ 76.8468, 11.5823 ] } },
{ "type": "Feature", "properties": { "state": "Tamil Nadu", "page": 165, "point": 49, "lon": 77.6559, "lat": 10.4359 }, "geometry": { "type": "Point", "coordinates": [ 77.6559, 10.4359 ] } },
{ "type": "Feature", "properties": { "state": "Tamil Nadu", "page": 165, "point": 14, "lon": 76.8278, "lat": 11.4419 }, "geometry": { "type": "Point", "coordinates": [ 76.8278, 11.4419 ] } },
{ "type": "Feature", "properties": { "state": "Tamil Nadu", "page": 165, "point": 50, "lon": 77.7524, "lat": 10.4886 }, "geometry": { "type": "Point", "coordinates": [ 77.7524, 10.4886 ] } },
{ "type": "Feature", "properties": { "state": "Tamil Nadu", "page": 165, "point": 15, "lon": 76.7466, "lat": 11.5029 }, "geometry": { "type": "Point", "coordinates": [ 76.7466, 11.5029 ] } },
{ "type": "Feature", "properties": { "state": "Tamil Nadu", "page": 165, "point": 51, "lon": 77.8165, "lat": 10.3799 }, "geometry": { "type": "Point", "coordinates": [ 77.8165, 10.3799 ] } },
{ "type": "Feature", "properties": { "state": "Tamil Nadu", "page": 165, "point": 16, "lon": 77.0007, "lat": 11.545 }, "geometry": { "type": "Point", "coordinates": [ 77.0007, 11.545 ] } },
{ "type": "Feature", "properties": { "state": "Tamil Nadu", "page": 165, "point": 52, "lon": 77.7829, "lat": 10.2681 }, "geometry": { "type": "Point", "coordinates": [ 77.7829, 10.2681 ] } },
{ "type": "Feature", "properties": { "state": "Tamil Nadu", "page": 165, "point": 17, "lon": 76.7311, "lat": 11.1922 }, "geometry": { "type": "Point", "coordinates": [ 76.7311, 11.1922 ] } },
{ "type": "Feature", "properties": { "state": "Tamil Nadu", "page": 165, "point": 53, "lon": 77.9114, "lat": 10.2525 }, "geometry": { "type": "Point", "coordinates": [ 77.9114, 10.2525 ] } },
{ "type": "Feature", "properties": { "state": "Tamil Nadu", "page": 165, "point": 18, "lon": 76.7516, "lat": 11.119 }, "geometry": { "type": "Point", "coordinates": [ 76.7516, 11.119 ] } },
{ "type": "Feature", "properties": { "state": "Tamil Nadu", "page": 165, "point": 54, "lon": 77.9753, "lat": 10.1325 }, "geometry": { "type": "Point", "coordinates": [ 77.9753, 10.1325 ] } },
{ "type": "Feature", "properties": { "state": "Tamil Nadu", "page": 165, "point": 19, "lon": 76.8047, "lat": 11.0562 }, "geometry": { "type": "Point", "coordinates": [ 76.8047, 11.0562 ] } },
{ "type": "Feature", "properties": { "state": "Tamil Nadu", "page": 165, "point": 55, "lon": 78.1257, "lat": 10.1882 }, "geometry": { "type": "Point", "coordinates": [ 78.1257, 10.1882 ] } },
{ "type": "Feature", "properties": { "state": "Tamil Nadu", "page": 165, "point": 20, "lon": 76.6974, "lat": 11.2378 }, "geometry": { "type": "Point", "coordinates": [ 76.6974, 11.2378 ] } },
{ "type": "Feature", "properties": { "state": "Tamil Nadu", "page": 165, "point": 56, "lon": 78.0026, "lat": 10.2859 }, "geometry": { "type": "Point", "coordinates": [ 78.0026, 10.2859 ] } },
{ "type": "Feature", "properties": { "state": "Tamil Nadu", "page": 165, "point": 21, "lon": 76.6218, "lat": 11.263 }, "geometry": { "type": "Point", "coordinates": [ 76.6218, 11.263 ] } },
{ "type": "Feature", "properties": { "state": "Tamil Nadu", "page": 165, "point": 57, "lon": 77.6005, "lat": 10.1977 }, "geometry": { "type": "Point", "coordinates": [ 77.6005, 10.1977 ] } },
{ "type": "Feature", "properties": { "state": "Tamil Nadu", "page": 165, "point": 22, "lon": 76.7846, "lat": 10.8908 }, "geometry": { "type": "Point", "coordinates": [ 76.7846, 10.8908 ] } },
{ "type": "Feature", "properties": { "state": "Tamil Nadu", "page": 165, "point": 58, "lon": 77.5129, "lat": 10.2443 }, "geometry": { "type": "Point", "coordinates": [ 77.5129, 10.2443 ] } },
{ "type": "Feature", "properties": { "state": "Tamil Nadu", "page": 165, "point": 23, "lon": 76.7399, "lat": 10.9689 }, "geometry": { "type": "Point", "coordinates": [ 76.7399, 10.9689 ] } },
{ "type": "Feature", "properties": { "state": "Tamil Nadu", "page": 165, "point": 59, "lon": 77.4065, "lat": 10.1677 }, "geometry": { "type": "Point", "coordinates": [ 77.4065, 10.1677 ] } },
{ "type": "Feature", "properties": { "state": "Tamil Nadu", "page": 165, "point": 24, "lon": 76.8442, "lat": 11.0219 }, "geometry": { "type": "Point", "coordinates": [ 76.8442, 11.0219 ] } },
{ "type": "Feature", "properties": { "state": "Tamil Nadu", "page": 165, "point": 60, "lon": 77.4647, "lat": 10.129 }, "geometry": { "type": "Point", "coordinates": [ 77.4647, 10.129 ] } },
{ "type": "Feature", "properties": { "state": "Tamil Nadu", "page": 165, "point": 25, "lon": 76.8403, "lat": 10.5569 }, "geometry": { "type": "Point", "coordinates": [ 76.8403, 10.5569 ] } },
{ "type": "Feature", "properties": { "state": "Tamil Nadu", "page": 165, "point": 61, "lon": 77.4792, "lat": 10.0654 }, "geometry": { "type": "Point", "coordinates": [ 77.4792, 10.0654 ] } },
{ "type": "Feature", "properties": { "state": "Tamil Nadu", "page": 165, "point": 26, "lon": 76.9277, "lat": 10.4858 }, "geometry": { "type": "Point", "coordinates": [ 76.9277, 10.4858 ] } },
{ "type": "Feature", "properties": { "state": "Tamil Nadu", "page": 165, "point": 62, "lon": 77.3904, "lat": 10.0104 }, "geometry": { "type": "Point", "coordinates": [ 77.3904, 10.0104 ] } },
{ "type": "Feature", "properties": { "state": "Tamil Nadu", "page": 165, "point": 27, "lon": 77.0441, "lat": 10.517 }, "geometry": { "type": "Point", "coordinates": [ 77.0441, 10.517 ] } },
{ "type": "Feature", "properties": { "state": "Tamil Nadu", "page": 165, "point": 63, "lon": 77.2568, "lat": 10.0352 }, "geometry": { "type": "Point", "coordinates": [ 77.2568, 10.0352 ] } },
{ "type": "Feature", "properties": { "state": "Tamil Nadu", "page": 165, "point": 28, "lon": 77.0779, "lat": 10.508 }, "geometry": { "type": "Point", "coordinates": [ 77.0779, 10.508 ] } },
{ "type": "Feature", "properties": { "state": "Tamil Nadu", "page": 165, "point": 64, "lon": 77.1946, "lat": 9.6102 }, "geometry": { "type": "Point", "coordinates": [ 77.1946, 9.6102 ] } },
{ "type": "Feature", "properties": { "state": "Tamil Nadu", "page": 165, "point": 29, "lon": 77.0757, "lat": 10.3926 }, "geometry": { "type": "Point", "coordinates": [ 77.0757, 10.3926 ] } },
{ "type": "Feature", "properties": { "state": "Tamil Nadu", "page": 165, "point": 65, "lon": 77.3288, "lat": 9.6757 }, "geometry": { "type": "Point", "coordinates": [ 77.3288, 9.6757 ] } },
{ "type": "Feature", "properties": { "state": "Tamil Nadu", "page": 165, "point": 30, "lon": 77.0957, "lat": 10.3096 }, "geometry": { "type": "Point", "coordinates": [ 77.0957, 10.3096 ] } },
{ "type": "Feature", "properties": { "state": "Tamil Nadu", "page": 165, "point": 66, "lon": 77.4932, "lat": 9.8542 }, "geometry": { "type": "Point", "coordinates": [ 77.4932, 9.8542 ] } },
{ "type": "Feature", "properties": { "state": "Tamil Nadu", "page": 165, "point": 31, "lon": 76.9054, "lat": 10.2526 }, "geometry": { "type": "Point", "coordinates": [ 76.9054, 10.2526 ] } },
{ "type": "Feature", "properties": { "state": "Tamil Nadu", "page": 165, "point": 67, "lon": 77.5872, "lat": 9.7667 }, "geometry": { "type": "Point", "coordinates": [ 77.5872, 9.7667 ] } },
{ "type": "Feature", "properties": { "state": "Tamil Nadu", "page": 165, "point": 32, "lon": 77.0137, "lat": 10.3166 }, "geometry": { "type": "Point", "coordinates": [ 77.0137, 10.3166 ] } },
{ "type": "Feature", "properties": { "state": "Tamil Nadu", "page": 165, "point": 68, "lon": 77.4037, "lat": 9.5274 }, "geometry": { "type": "Point", "coordinates": [ 77.4037, 9.5274 ] } },
{ "type": "Feature", "properties": { "state": "Tamil Nadu", "page": 165, "point": 33, "lon": 76.9682, "lat": 10.3876 }, "geometry": { "type": "Point", "coordinates": [ 76.9682, 10.3876 ] } },
{ "type": "Feature", "properties": { "state": "Tamil Nadu", "page": 165, "point": 69, "lon": 77.4791, "lat": 9.5639 }, "geometry": { "type": "Point", "coordinates": [ 77.4791, 9.5639 ] } },
{ "type": "Feature", "properties": { "state": "Tamil Nadu", "page": 165, "point": 34, "lon": 76.8399, "lat": 10.3396 }, "geometry": { "type": "Point", "coordinates": [ 76.8399, 10.3396 ] } },
{ "type": "Feature", "properties": { "state": "Tamil Nadu", "page": 165, "point": 70, "lon": 77.5272, "lat": 9.6455 }, "geometry": { "type": "Point", "coordinates": [ 77.5272, 9.6455 ] } },
{ "type": "Feature", "properties": { "state": "Tamil Nadu", "page": 165, "point": 35, "lon": 77.1681, "lat": 10.4634 }, "geometry": { "type": "Point", "coordinates": [ 77.1681, 10.4634 ] } },
{ "type": "Feature", "properties": { "state": "Tamil Nadu", "page": 165, "point": 71, "lon": 77.6318, "lat": 9.5993 }, "geometry": { "type": "Point", "coordinates": [ 77.6318, 9.5993 ] } },
{ "type": "Feature", "properties": { "state": "Tamil Nadu", "page": 165, "point": 36, "lon": 77.3215, "lat": 10.4354 }, "geometry": { "type": "Point", "coordinates": [ 77.3215, 10.4354 ] } },
{ "type": "Feature", "properties": { "state": "Tamil Nadu", "page": 165, "point": 72, "lon": 77.5755, "lat": 9.492 }, "geometry": { "type": "Point", "coordinates": [ 77.5755, 9.492 ] } },
{ "type": "Feature", "properties": { "state": "Tamil Nadu", "page": 166, "point": 73, "lon": 77.4443, "lat": 9.4418 }, "geometry": { "type": "Point", "coordinates": [ 77.4443, 9.4418 ] } },
{ "type": "Feature", "properties": { "state": "Tamil Nadu", "page": 166, "point": 74, "lon": 77.4065, "lat": 9.3953 }, "geometry": { "type": "Point", "coordinates": [ 77.4065, 9.3953 ] } },
{ "type": "Feature", "properties": { "state": "Tamil Nadu", "page": 166, "point": 75, "lon": 77.3412, "lat": 9.4186 }, "geometry": { "type": "Point", "coordinates": [ 77.3412, 9.4186 ] } },
{ "type": "Feature", "properties": { "state": "Tamil Nadu", "page": 166, "point": 76, "lon": 77.379, "lat": 9.3137 }, "geometry": { "type": "Point", "coordinates": [ 77.379, 9.3137 ] } },
{ "type": "Feature", "properties": { "state": "Tamil Nadu", "page": 166, "point": 77, "lon": 77.3457, "lat": 9.2004 }, "geometry": { "type": "Point", "coordinates": [ 77.3457, 9.2004 ] } },
{ "type": "Feature", "properties": { "state": "Tamil Nadu", "page": 166, "point": 78, "lon": 77.2709, "lat": 9.2035 }, "geometry": { "type": "Point", "coordinates": [ 77.2709, 9.2035 ] } },
{ "type": "Feature", "properties": { "state": "Tamil Nadu", "page": 166, "point": 79, "lon": 77.3292, "lat": 9.138 }, "geometry": { "type": "Point", "coordinates": [ 77.3292, 9.138 ] } },
{ "type": "Feature", "properties": { "state": "Tamil Nadu", "page": 166, "point": 80, "lon": 77.2939, "lat": 9.076 }, "geometry": { "type": "Point", "coordinates": [ 77.2939, 9.076 ] } },
{ "type": "Feature", "properties": { "state": "Tamil Nadu", "page": 166, "point": 81, "lon": 77.247, "lat": 9.0632 }, "geometry": { "type": "Point", "coordinates": [ 77.247, 9.0632 ] } },
{ "type": "Feature", "properties": { "state": "Tamil Nadu", "page": 166, "point": 82, "lon": 77.2143, "lat": 9.0252 }, "geometry": { "type": "Point", "coordinates": [ 77.2143, 9.0252 ] } },
{ "type": "Feature", "properties": { "state": "Tamil Nadu", "page": 166, "point": 83, "lon": 77.161, "lat": 9.0076 }, "geometry": { "type": "Point", "coordinates": [ 77.161, 9.0076 ] } },
{ "type": "Feature", "properties": { "state": "Tamil Nadu", "page": 166, "point": 84, "lon": 77.1764, "lat": 8.988 }, "geometry": { "type": "Point", "coordinates": [ 77.1764, 8.988 ] } },
{ "type": "Feature", "properties": { "state": "Tamil Nadu", "page": 166, "point": 85, "lon": 77.2291, "lat": 8.9406 }, "geometry": { "type": "Point", "coordinates": [ 77.2291, 8.9406 ] } },
{ "type": "Feature", "properties": { "state": "Tamil Nadu", "page": 166, "point": 86, "lon": 77.3238, "lat": 8.8819 }, "geometry": { "type": "Point", "coordinates": [ 77.3238, 8.8819 ] } },
{ "type": "Feature", "properties": { "state": "Tamil Nadu", "page": 166, "point": 87, "lon": 77.2808, "lat": 8.9206 }, "geometry": { "type": "Point", "coordinates": [ 77.2808, 8.9206 ] } },
{ "type": "Feature", "properties": { "state": "Tamil Nadu", "page": 166, "point": 88, "lon": 77.2584, "lat": 8.878 }, "geometry": { "type": "Point", "coordinates": [ 77.2584, 8.878 ] } },
{ "type": "Feature", "properties": { "state": "Tamil Nadu", "page": 166, "point": 89, "lon": 77.329, "lat": 8.772 }, "geometry": { "type": "Point", "coordinates": [ 77.329, 8.772 ] } },
{ "type": "Feature", "properties": { "state": "Tamil Nadu", "page": 166, "point": 90, "lon": 77.3955, "lat": 8.6927 }, "geometry": { "type": "Point", "coordinates": [ 77.3955, 8.6927 ] } },
{ "type": "Feature", "properties": { "state": "Tamil Nadu", "page": 166, "point": 91, "lon": 77.2315, "lat": 8.6385 }, "geometry": { "type": "Point", "coordinates": [ 77.2315, 8.6385 ] } },
{ "type": "Feature", "properties": { "state": "Tamil Nadu", "page": 166, "point": 92, "lon": 77.494, "lat": 8.6214 }, "geometry": { "type": "Point", "coordinates": [ 77.494, 8.6214 ] } },
{ "type": "Feature", "properties": { "state": "Tamil Nadu", "page": 166, "point": 93, "lon": 77.5498, "lat": 8.6042 }, "geometry": { "type": "Point", "coordinates": [ 77.5498, 8.6042 ] } },
{ "type": "Feature", "properties": { "state": "Tamil Nadu", "page": 166, "point": 94, "lon": 77.34, "lat": 8.5533 }, "geometry": { "type": "Point", "coordinates": [ 77.34, 8.5533 ] } },
{ "type": "Feature", "properties": { "state": "Tamil Nadu", "page": 166, "point": 95, "lon": 77.271, "lat": 8.5808 }, "geometry": { "type": "Point", "coordinates": [ 77.271, 8.5808 ] } },
{ "type": "Feature", "properties": { "state": "Tamil Nadu", "page": 166, "point": 96, "lon": 77.5213, "lat": 8.5209 }, "geometry": { "type": "Point", "coordinates": [ 77.5213, 8.5209 ] } },
{ "type": "Feature", "properties": { "state": "Tamil Nadu", "page": 166, "point": 97, "lon": 77.5746, "lat": 8.4171 }, "geometry": { "type": "Point", "coordinates": [ 77.5746, 8.4171 ] } },
{ "type": "Feature", "properties": { "state": "Tamil Nadu", "page": 166, "point": 98, "lon": 77.4866, "lat": 8.3937 }, "geometry": { "type": "Point", "coordinates": [ 77.4866, 8.3937 ] } },
{ "type": "Feature", "properties": { "state": "Tamil Nadu", "page": 166, "point": 99, "lon": 77.448, "lat": 8.4753 }, "geometry": { "type": "Point", "coordinates": [ 77.448, 8.4753 ] } },
{ "type": "Feature", "properties": { "state": "Tamil Nadu", "page": 166, "point": 100, "lon": 77.3076, "lat": 8.4547 }, "geometry": { "type": "Point", "coordinates": [ 77.3076, 8.4547 ] } },
{ "type": "Feature", "properties": { "state": "Tamil Nadu", "page": 166, "point": 101, "lon": 77.215, "lat": 8.5113 }, "geometry": { "type": "Point", "coordinates": [ 77.215, 8.5113 ] } },
{ "type": "Feature", "properties": { "state": "Tamil Nadu", "page": 166, "point": 102, "lon": 77.2993, "lat": 8.4024 }, "geometry": { "type": "Point", "coordinates": [ 77.2993, 8.4024 ] } },
{ "type": "Feature", "properties": { "state": "Tamil Nadu", "page": 166, "point": 103, "lon": 77.3391, "lat": 8.3529 }, "geometry": { "type": "Point", "coordinates": [ 77.3391, 8.3529 ] } },
{ "type": "Feature", "properties": { "state": "Tamil Nadu", "page": 166, "point": 104, "lon": 77.3883, "lat": 8.303 }, "geometry": { "type": "Point", "coordinates": [ 77.3883, 8.303 ] } },
{ "type": "Feature", "properties": { "state": "Tamil Nadu", "page": 166, "point": 105, "lon": 77.5358, "lat": 8.3922 }, "geometry": { "type": "Point", "coordinates": [ 77.5358, 8.3922 ] } },
{ "type": "Feature", "properties": { "state": "Tamil Nadu", "page": 166, "point": 106, "lon": 77.5572, "lat": 8.2926 }, "geometry": { "type": "Point", "coordinates": [ 77.5572, 8.2926 ] } },
{ "type": "Feature", "properties": { "state": "Tamil Nadu", "page": 166, "point": 107, "lon": 77.5406, "lat": 8.1984 }, "geometry": { "type": "Point", "coordinates": [ 77.5406, 8.1984 ] } },
{ "type": "Feature", "properties": { "state": "Tamil Nadu", "page": 166, "point": 108, "lon": 77.4718, "lat": 8.2709 }, "geometry": { "type": "Point", "coordinates": [ 77.4718, 8.2709 ] } },
{ "type": "Feature", "properties": { "state": "Tamil Nadu", "page": 166, "point": 109, "lon": 77.215, "lat": 8.5113 }, "geometry": { "type": "Point", "coordinates": [ 77.215, 8.5113 ] } }
]
}
